NORAD_CAT_ID,OBJECT_NAME,OBJECT_TYPE,EPOCH,MEAN_MOTION,ECCENTRICITY,INCLINATION,RA_OF_ASC_NODE,ARG_OF_PERICENTER,MEAN_ANOMALY,BSTAR,MEAN_MOTION_DOT,MEAN_MOTION_DDOT,TLE_LINE0,TLE_LINE1,TLE_LINE2,SEMIMAJOR_AXIS,PERIOD,APOGEE,PERIGEE,DECAYED
52272.0,STARLINK-3781,PAYLOAD,2024-08-03 16:54:35,15.08836112,0.0001377,53.2149,206.28,90.4875,269.6275,2.281e-05,7.5e-07,0.0,0 STARLINK-3781,1 52272U 22041M   24216.70457877  .00000075  00000-0  22810-4 0  9996,2 52272  53.2149 206.2800 0001377  90.4875 269.6275 15.08836112126352,6917.892,95.438,540.71,538.805,0.0
52272.0,STARLINK-3781,PAYLOAD,2024-08-04 04:02:17,15.08822457,0.0001258,53.2148,204.1983,98.7338,261.3797,0.00024472,3.607e-05,0.0,0 STARLINK-3781,1 52272U 22041M   24217.16826198  .00003607  00000-0  24472-3 0  9992,2 52272  53.2148 204.1983 0001258  98.7338 261.3797 15.08822457127652,6917.934,95.439,540.669,538.929,0.0
52272.0,STARLINK-3781,PAYLOAD,2024-08-04 05:37:40,15.08836994,0.0001348,53.215,203.9011,97.0641,263.0505,5.2913e-05,5.54e-06,0.0,0 STARLINK-3781,1 52272U 22041M   24217.23449773  .00000554  00000-0  52913-4 0  9990,2 52272  53.2150 203.9011 0001348  97.0641 263.0505 15.08836994127661,6917.89,95.438,540.687,538.822,0.0
52272.0,STARLINK-3781,PAYLOAD,2024-08-04 16:45:21,15.08847249,0.0001374,53.2155,201.8195,99.1627,260.9521,1.4473e-05,-5.8e-07,0.0,0 STARLINK-3781,1 52272U 22041M   24217.69817106 -.00000058  00000-0  14473-4 0  9998,2 52272  53.2155 201.8195 0001374  99.1627 260.9521 15.08847249127739,6917.858,95.437,540.674,538.773,0.0
52272.0,STARLINK-3781,PAYLOAD,2024-08-05 05:28:26,15.08851263,0.0001539,53.215,199.4419,97.3832,262.7335,0.00010979,1.46e-05,0.0,0 STARLINK-3781,1 52272U 22041M   24218.22808536  .00001460  00000-0  10979-3 0  9998,2 52272  53.2150 199.4419 0001539  97.3832 262.7335 15.08851263126582,6917.846,95.437,540.776,538.646,0.0
52272.0,STARLINK-3781,PAYLOAD,2024-08-06 03:43:51,15.08831874,0.0001392,53.216,195.2796,113.1603,246.9536,-4.2161e-05,-9.59e-06,0.0,0 STARLINK-3781,1 52272U 22041M   24219.15545410 -.00000959  00000-0 -42161-4 0  9993,2 52272  53.2160 195.2796 0001392 113.1603 246.9536 15.08831874127950,6917.905,95.438,540.733,538.807,0.0
52272.0,STARLINK-3781,PAYLOAD,2024-08-06 08:30:01,15.08826229,0.0001348,53.2159,194.3867,108.3629,251.7509,-0.00011085,-2.051e-05,0.0,0 STARLINK-3781,1 52272U 22041M   24219.35418056 -.00002051  00000-0 -11085-3 0  9995,2 52272  53.2159 194.3867 0001348 108.3629 251.7509 15.08826229127987,6917.922,95.438,540.72,538.855,0.0
52272.0,STARLINK-3781,PAYLOAD,2024-08-06 14:51:33,15.08827051,0.0001148,53.2156,193.1981,88.5461,271.5663,-9.6921e-05,-1.829e-05,0.0,0 STARLINK-3781,1 52272U 22041M   24219.61914175 -.00001829  00000-0 -96921-4 0  9992,2 52272  53.2156 193.1981 0001148  88.5461 271.5663 15.08827051126792,6917.92,95.438,540.579,538.991,0.0
52272.0,STARLINK-3781,PAYLOAD,2024-08-07 01:59:16,15.08828014,0.0001252,53.2159,191.1164,97.68,262.4334,-0.00013699,-2.467e-05,0.0,0 STARLINK-3781,1 52272U 22041M   24220.08282513 -.00002467  00000-0 -13699-3 0  9998,2 52272  53.2159 191.1164 0001252  97.6800 262.4334 15.08828014126862,6917.917,95.438,540.648,538.916,0.0
52272.0,STARLINK-3781,PAYLOAD,2024-08-08 06:36:11,15.0883648,0.0001473,53.2167,185.7622,120.3522,239.7616,0.00022292,3.261e-05,0.0,0 STARLINK-3781,1 52272U 22041M   24221.27513487  .00003261  00000-0  22292-3 0  9997,2 52272  53.2167 185.7622 0001473 120.3522 239.7616 15.08836480127046,6917.891,95.438,540.775,538.737,0.0
52272.0,STARLINK-3781,PAYLOAD,2024-08-09 04:51:36,15.08839506,0.0001315,53.217,181.5987,104.3469,255.7669,6.7731e-05,7.9e-06,0.0,0 STARLINK-3781,1 52272U 22041M   24222.20250409  .00000790  00000-0  67731-4 0  9995,2 52272  53.2170 181.5987 0001315 104.3469 255.7669 15.08839506128415,6917.882,95.438,540.657,538.837,0.0
52272.0,STARLINK-3781,PAYLOAD,2024-08-09 06:26:59,15.0884108,0.0001246,53.2167,181.3011,84.4002,275.7132,0.00013233,1.819e-05,0.0,0 STARLINK-3781,1 52272U 22041M   24222.26874161  .00001819  00000-0  13233-3 0  9998,2 52272  53.2167 181.3011 0001246  84.4002 275.7132 15.08841080127192,6917.877,95.437,540.604,538.88,0.0
52272.0,STARLINK-3781,PAYLOAD,2024-08-09 20:45:28,15.08835489,9.93e-05,53.217,178.6253,110.3016,249.8083,-5.45e-05,-1.155e-05,0.0,0 STARLINK-3781,1 52272U 22041M   24222.86491242 -.00001155  00000-0 -54500-4 0  9997,2 52272  53.2170 178.6253 0000993 110.3016 249.8083 15.08835489128515,6917.894,95.438,540.446,539.072,0.0
52272.0,STARLINK-3781,PAYLOAD,2024-08-10 03:07:00,15.08841617,0.0001447,53.2169,177.44,92.0987,268.0171,-2.4643e-06,-3.27e-06,0.0,0 STARLINK-3781,1 52272U 22041M   24223.12986759 -.00000327  00000-0 -24643-5 0  9995,2 52272  53.2169 177.4400 0001447  92.0987 268.0171 15.08841617128557,6917.875,95.437,540.741,538.739,0.0
52272.0,STARLINK-3781,PAYLOAD,2024-08-10 04:42:22,15.08851125,0.0001303,53.2172,177.1382,92.1422,267.9719,8.2246e-05,1.022e-05,0.0,0 STARLINK-3781,1 52272U 22041M   24223.19609891  .00001022  00000-0  82246-4 0  9994,2 52272  53.2172 177.1382 0001303  92.1422 267.9719 15.08851125128565,6917.846,95.437,540.613,538.81,0.0
52272.0,STARLINK-3781,PAYLOAD,2024-08-11 02:57:46,15.0885064,0.0001399,53.2159,172.976,109.3626,250.7517,2.1921e-05,6.1e-07,0.0,0 STARLINK-3781,1 52272U 22041M   24224.12345829  .00000061  00000-0  21921-4 0  9991,2 52272  53.2159 172.9760 0001399 109.3626 250.7517 15.08850640128708,6917.848,95.437,540.681,538.745,0.0
52272.0,STARLINK-3781,PAYLOAD,2024-08-11 14:05:28,15.08850046,0.0001167,53.2165,170.8938,96.9499,263.1625,3.1316e-05,2.11e-06,0.0,0 STARLINK-3781,1 52272U 22041M   24224.58713685  .00000211  00000-0  31316-4 0  9996,2 52272  53.2165 170.8938 0001167  96.9499 263.1625 15.08850046127540,6917.85,95.437,540.522,538.907,0.0
52272.0,STARLINK-3781,PAYLOAD,2024-08-12 02:48:33,15.08852722,0.0001538,53.2167,168.5132,108.8999,251.216,4.9247e-05,4.96e-06,0.0,0 STARLINK-3781,1 52272U 22041M   24225.11705603  .00000496  00000-0  49247-4 0  9994,2 52272  53.2167 168.5132 0001538 108.8999 251.2160 15.08852722127626,6917.842,95.437,540.77,538.643,0.0
52272.0,STARLINK-3781,PAYLOAD,2024-08-12 20:17:47,15.0886098,0.0001343,53.2165,165.2483,89.231,270.8836,2.4087e-05,9.6e-07,0.0,0 STARLINK-3781,1 52272U 22041M   24225.84568952  .00000096  00000-0  24087-4 0  9999,2 52272  53.2165 165.2483 0001343  89.2310 270.8836 15.08860980128960,6917.816,95.436,540.61,538.752,0.0
52272.0,STARLINK-3781,PAYLOAD,2024-08-13 02:39:21,15.08816549,0.0001589,53.2158,164.057,96.8903,263.227,-0.0005006,-8.241e-05,0.0,0 STARLINK-3781,1 52272U 22041M   24226.11067064 -.00008241  00000-0 -50060-3 0  9999,2 52272  53.2158 164.0570 0001589  96.8903 263.2270 15.08816549129006,6917.952,95.439,540.916,538.718,0.0
52272.0,STARLINK-3781,PAYLOAD,2024-08-13 05:50:09,15.08794536,0.0001429,53.2151,163.462,93.3593,266.7562,-0.00080392,-0.00013044,0.0,0 STARLINK-3781,1 52272U 22041M   24226.24316394 -.00013044  00000-0 -80392-3 0  9994,2 52272  53.2151 163.4620 0001429  93.3593 266.7562 15.08794536129023,6918.019,95.44,540.873,538.896,0.0
52272.0,STARLINK-3781,PAYLOAD,2024-08-13 20:08:38,15.08794422,0.000114,53.2162,160.7886,77.1443,282.9676,-0.00040595,-6.734e-05,0.0,0 STARLINK-3781,1 52272U 22041M   24226.83933539 -.00006734  00000-0 -40595-3 0  9994,2 52272  53.2162 160.7886 0001140  77.1443 282.9676 15.08794422129113,6918.02,95.44,540.673,539.096,0.0
52272.0,STARLINK-3781,PAYLOAD,2024-08-14 02:30:11,15.08808285,0.0001346,53.2151,159.6001,81.4417,278.6728,-0.00016822,-2.962e-05,0.0,0 STARLINK-3781,1 52272U 22041M   24227.10429439 -.00002962  00000-0 -16822-3 0  9999,2 52272  53.2151 159.6001 0001346  81.4417 278.6728 15.08808285129151,6917.977,95.44,540.773,538.911,0.0
52272.0,STARLINK-3781,PAYLOAD,2024-08-14 05:40:57,15.08818457,0.0001481,53.2152,159.0034,90.3105,269.8057,-0.00015853,-2.809e-05,0.0,0 STARLINK-3781,1 52272U 22041M   24227.23677136 -.00002809  00000-0 -15853-3 0  9995,2 52272  53.2152 159.0034 0001481  90.3105 269.8057 15.08818457129176,6917.946,95.439,540.836,538.787,0.0
52272.0,STARLINK-3781,PAYLOAD,2024-08-14 12:02:29,15.08824131,0.0001462,53.2159,157.8149,90.6081,269.5078,0.00016515,2.34e-05,0.0,0 STARLINK-3781,1 52272U 22041M   24227.50173212  .00002340  00000-0  16515-3 0  9995,2 52272  53.2159 157.8149 0001462  90.6081 269.5078 15.08824131127984,6917.929,95.439,540.805,538.782,0.0
52272.0,STARLINK-3781,PAYLOAD,2024-08-15 00:45:34,15.08853313,0.0001356,53.2151,155.4337,92.8609,267.2538,0.00082537,0.00012877,0.0,0 STARLINK-3781,1 52272U 22041M   24228.03164722  .00012877  00000-0  82537-3 0  9993,2 52272  53.2151 155.4337 0001356  92.8609 267.2538 15.08853313129297,6917.84,95.437,540.643,538.767,0.0
52272.0,STARLINK-3781,PAYLOAD,2024-08-15 11:53:15,15.08876744,0.0001283,53.2142,153.3525,65.2578,294.8547,0.0011321,0.00017793,0.0,0 STARLINK-3781,1 52272U 22041M   24228.49532239  .00017793  00000-0  11321-2 0  9999,2 52272  53.2142 153.3525 0001283  65.2578 294.8547 15.08876744128132,6917.768,95.435,540.521,538.746,0.0
52272.0,STARLINK-3781,PAYLOAD,2024-08-15 23:00:57,15.08860634,0.0001428,53.2156,151.2718,93.1868,266.9288,-5.8023e-05,-1.212e-05,0.0,0 STARLINK-3781,1 52272U 22041M   24228.95899734 -.00001212  00000-0 -58023-4 0  9999,2 52272  53.2156 151.2718 0001428  93.1868 266.9288 15.08860634128202,6917.817,95.436,540.67,538.694,0.0
52272.0,STARLINK-3781,PAYLOAD,2024-08-16 02:11:43,15.08868607,0.0001286,53.215,150.6773,78.8102,281.3035,0.0019252,0.00030509,0.0,0 STARLINK-3781,1 52272U 22041M   24229.09147564  .00030509  00000-0  19252-2 0  9990,2 52272  53.2150 150.6773 0001286  78.8102 281.3035 15.08868607129450,6917.793,95.436,540.548,538.768,0.0
52272.0,STARLINK-3781,PAYLOAD,2024-08-16 19:40:57,15.0885158,0.0001397,53.2151,147.4047,81.0632,279.0518,0.0012069,0.00018978,0.0,0 STARLINK-3781,1 52272U 22041M   24229.82011482  .00018978  00000-0  12069-2 0  9995,2 52272  53.2151 147.4047 0001397  81.0632 279.0518 15.08851580129560,6917.845,95.437,540.676,538.744,0.0
